NORAD_CAT_ID,OBJECT_NAME,OBJECT_TYPE,EPOCH,MEAN_MOTION,ECCENTRICITY,INCLINATION,RA_OF_ASC_NODE,ARG_OF_PERICENTER,MEAN_ANOMALY,BSTAR,MEAN_MOTION_DOT,MEAN_MOTION_DDOT,TLE_LINE0,TLE_LINE1,TLE_LINE2,SEMIMAJOR_AXIS,PERIOD,APOGEE,PERIGEE,DECAYED
55758.0,STARLINK-5072,PAYLOAD,2023-09-15 11:52:27,14.98334412,0.0003347,70.0015,9.1878,275.387,84.6907,-6.2923e-05,-8.44e-06,0.0,0 STARLINK-5072,1 55758U 23028T   23258.49476142 -.00000844  00000-0 -62923-4 0  9996,2 55758  70.0015   9.1878 0003347 275.3870  84.6907 14.98334412 30306,6950.179,96.107,574.37,569.718,0.0
55758.0,STARLINK-5072,PAYLOAD,2023-09-16 10:18:20,14.98319721,0.0003298,70.0016,6.8319,274.5553,85.523,0.00018868,2.158e-05,0.0,0 STARLINK-5072,1 55758U 23028T   23259.42940350  .00002158  00000-0  18868-3 0  9993,2 55758  70.0016   6.8319 0003298 274.5553  85.5230 14.98319721 30445,6950.225,96.108,574.382,569.797,0.0
55758.0,STARLINK-5072,PAYLOAD,2023-09-16 13:30:36,14.98322965,0.0003331,70.0014,6.4951,274.6929,85.385,0.00016145,1.834e-05,0.0,0 STARLINK-5072,1 55758U 23028T   23259.56292286  .00001834  00000-0  16145-3 0  9992,2 55758  70.0014   6.4951 0003331 274.6929  85.3850 14.98322965 30469,6950.215,96.107,574.395,569.765,0.0
55758.0,STARLINK-5072,PAYLOAD,2023-09-16 16:42:52,14.98326134,0.0002913,70.0021,6.1582,275.8762,84.2065,0.00021759,2.504e-05,0.0,0 STARLINK-5072,1 55758U 23028T   23259.69644052  .00002504  00000-0  21759-3 0  9990,2 55758  70.0021   6.1582 0002913 275.8762  84.2065 14.98326134 30487,6950.205,96.107,574.094,570.045,0.0
55758.0,STARLINK-5072,PAYLOAD,2023-09-17 13:32:37,14.98334089,0.0003337,70.0013,3.9699,273.5744,86.5033,-2.6655e-05,-4.11e-06,0.0,0 STARLINK-5072,1 55758U 23028T   23260.56432132 -.00000411  00000-0 -26655-4 0  9990,2 55758  70.0013   3.9699 0003337 273.5744  86.5033 14.98334089 30611,6950.18,96.107,574.365,569.726,0.0
55758.0,STARLINK-5072,PAYLOAD,2023-09-17 16:44:53,14.98337547,0.000331,70.0013,3.6334,274.2807,85.7973,1.3252e-05,6.5e-07,0.0,0 STARLINK-5072,1 55758U 23028T   23260.69783772  .00000065  00000-0  13252-4 0  9995,2 55758  70.0013   3.6334 0003310 274.2807  85.7973 14.98337547 30631,6950.17,96.107,574.335,569.734,0.0
55758.0,STARLINK-5072,PAYLOAD,2023-09-18 10:22:22,14.98331051,0.0003235,70.0009,1.7815,273.3585,86.7204,-5.5608e-07,-1e-06,0.0,0 STARLINK-5072,1 55758U 23028T   23261.43220033 -.00000100  00000-0 -55608-6 0  9999,2 55758  70.0009   1.7815 0003235 273.3585  86.7204 14.98331051 30742,6950.19,96.107,574.303,569.806,0.0
55758.0,STARLINK-5072,PAYLOAD,2023-09-18 13:34:38,14.98331167,0.0002827,70.0017,1.4454,263.6965,96.3872,8.9919e-06,1.4e-07,0.0,0 STARLINK-5072,1 55758U 23028T   23261.56571970  .00000014  00000-0  89919-5 0  9995,2 55758  70.0017   1.4454 0002827 263.6965  96.3872 14.98331167 30765,6950.189,96.107,574.019,570.089,0.0
55758.0,STARLINK-5072,PAYLOAD,2023-09-18 16:46:53,14.98338422,0.0003194,70.0011,1.1097,267.4942,92.5852,2.1986e-05,1.69e-06,0.0,0 STARLINK-5072,1 55758U 23028T   23261.69923406  .00000169  00000-0  21986-4 0  9994,2 55758  70.0011   1.1097 0003194 267.4942  92.5852 14.98338422 30783,6950.167,96.106,574.252,569.812,0.0
55758.0,STARLINK-5072,PAYLOAD,2023-09-19 16:48:53,14.98343454,0.0003044,70.0012,358.585,259.8618,100.2198,0.00011551,1.286e-05,0.0,0 STARLINK-5072,1 55758U 23028T   23262.70062347  .00001286  00000-0  11551-3 0  9992,2 55758  70.0012 358.5850 0003044 259.8618 100.2198 14.98343454 30937,6950.151,96.106,574.132,569.901,0.0
55758.0,STARLINK-5072,PAYLOAD,2023-09-20 08:50:16,14.98323728,0.00029,70.0,356.899,267.6947,92.388,-0.00023342,-2.876e-05,0.0,0 STARLINK-5072,1 55758U 23028T   23263.36824717 -.00002876  00000-0 -23342-3 0  9991,2 55758  70.0000 356.8990 0002900 267.6947  92.3880 14.98323728 31035,6950.212,96.107,574.093,570.062,0.0
55758.0,STARLINK-5072,PAYLOAD,2023-09-20 13:38:40,14.98347746,0.0002135,70.0017,356.3964,235.4249,124.6708,-0.00076001,-9.153e-05,0.0,0 STARLINK-5072,1 55758U 23028T   23263.56852660 -.00009153  00000-0 -76001-3 0  9996,2 55758  70.0017 356.3964 0002135 235.4249 124.6708 14.98347746 31064,6950.138,96.106,573.487,570.519,0.0
55758.0,STARLINK-5072,PAYLOAD,2023-09-20 15:14:48,14.98355352,0.0002864,70.0003,356.2265,264.6896,95.3936,-0.00081087,-9.761e-05,0.0,0 STARLINK-5072,1 55758U 23028T   23263.63528232 -.00009761  00000-0 -81087-3 0  9994,2 55758  70.0003 356.2265 0002864 264.6896  95.3936 14.98355352 31073,6950.114,96.105,573.97,569.989,0.0
55758.0,STARLINK-5072,PAYLOAD,2023-09-21 10:28:25,14.98329305,0.0003572,69.9997,354.2065,270.1862,89.8887,-0.00012874,-1.629e-05,0.0,0 STARLINK-5072,1 55758U 23028T   23264.43640546 -.00001629  00000-0 -12874-3 0  9999,2 55758  69.9997 354.2065 0003572 270.1862  89.8887 14.98329305 31195,6950.195,96.107,574.543,569.577,0.0
55758.0,STARLINK-5072,PAYLOAD,2023-09-21 12:04:33,14.98330366,0.0003455,70.0002,354.0387,268.9657,91.1106,-0.00010159,-1.305e-05,0.0,0 STARLINK-5072,1 55758U 23028T   23264.50316412 -.00001305  00000-0 -10159-3 0  9994,2 55758  70.0002 354.0387 0003455 268.9657  91.1106 14.98330366 31208,6950.192,96.107,574.458,569.655,0.0
55758.0,STARLINK-5072,PAYLOAD,2023-09-21 15:16:49,14.98334798,0.0003354,70.0005,353.7027,262.5766,97.5012,-4.9791e-05,-6.87e-06,0.0,0 STARLINK-5072,1 55758U 23028T   23264.63667932 -.00000687  00000-0 -49791-4 0  9991,2 55758  70.0005 353.7027 0003354 262.5766  97.5012 14.98334798 31228,6950.178,96.107,574.374,569.712,0.0
55758.0,STARLINK-5072,PAYLOAD,2023-09-22 13:42:41,14.98331035,0.0003302,70.0006,351.3455,264.6886,95.3896,0.00028132,3.265e-05,0.0,0 STARLINK-5072,1 55758U 23028T   23265.57131370  .00003265  00000-0  28132-3 0  9995,2 55758  70.0006 351.3455 0003302 264.6886  95.3896 14.98331035 31369,6950.19,96.107,574.35,569.76,0.0
55758.0,STARLINK-5072,PAYLOAD,2023-09-22 15:18:49,14.98332049,0.0003241,70.0007,351.1776,264.0688,96.0102,0.00029893,3.476e-05,0.0,0 STARLINK-5072,1 55758U 23028T   23265.63807265  .00003476  00000-0  29893-3 0  9994,2 55758  70.0007 351.1776 0003241 264.0688  96.0102 14.98332049 31375,6950.187,96.107,574.304,569.799,0.0
55758.0,STARLINK-5072,PAYLOAD,2023-09-22 23:19:30,14.98328348,0.0002738,70.0024,350.3354,262.7873,97.2974,0.00020947,2.407e-05,0.0,0 STARLINK-5072,1 55758U 23028T   23265.97187868  .00002407  00000-0  20947-3 0  9995,2 55758  70.0024 350.3354 0002738 262.7873  97.2974 14.98328348 31421,6950.198,96.107,573.966,570.16,0.0
55758.0,STARLINK-5072,PAYLOAD,2023-09-23 13:44:42,14.98330995,0.0003031,70.0007,348.8196,259.4788,100.6029,8.6953e-05,9.45e-06,0.0,0 STARLINK-5072,1 55758U 23028T   23266.57271703  .00000945  00000-0  86953-4 0  9999,2 55758  70.0007 348.8196 0003031 259.4788 100.6029 14.98330995 31514,6950.19,96.107,574.161,569.948,0.0
55758.0,STARLINK-5072,PAYLOAD,2023-09-24 10:34:27,14.98330573,0.0003372,70.0008,346.6321,268.6065,91.4707,-3.4946e-05,-5.1e-06,0.0,0 STARLINK-5072,1 55758U 23028T   23267.44059784 -.00000510  00000-0 -34946-4 0  9994,2 55758  70.0008 346.6321 0003372 268.6065  91.4707 14.98330573 31645,6950.191,96.107,574.4,569.713,0.0
55758.0,STARLINK-5072,PAYLOAD,2023-09-24 13:46:43,14.9833639,0.0002973,70.0013,346.2972,256.6844,103.3984,-3.1809e-05,-4.73e-06,0.0,0 STARLINK-5072,1 55758U 23028T   23267.57411318 -.00000473  00000-0 -31809-4 0  9996,2 55758  70.0013 346.2972 0002973 256.6844 103.3984 14.98336390 31662,6950.173,96.107,574.104,569.972,0.0
55758.0,STARLINK-5072,PAYLOAD,2023-09-24 15:22:51,14.98336993,0.0002983,70.0012,346.1289,257.0716,103.011,-3.4912e-05,-5.1e-06,0.0,0 STARLINK-5072,1 55758U 23028T   23267.64087258 -.00000510  00000-0 -34912-4 0  9996,2 55758  70.0012 346.1289 0002983 257.0716 103.0110 14.98336993 31673,6950.171,96.107,574.11,569.963,0.0
55758.0,STARLINK-5072,PAYLOAD,2023-09-25 12:12:36,14.98338052,0.0002745,70.0014,343.9398,261.2038,98.881,-8.2382e-05,-1.076e-05,0.0,0 STARLINK-5072,1 55758U 23028T   23268.50875134 -.00001076  00000-0 -82382-4 0  9992,2 55758  70.0014 343.9398 0002745 261.2038  98.8810 14.98338052 31802,6950.168,96.106,573.941,570.125,0.0
55758.0,STARLINK-5072,PAYLOAD,2023-09-25 15:24:52,14.98336119,0.0002839,70.0015,343.6035,261.4665,98.6172,3.6004e-05,3.37e-06,0.0,0 STARLINK-5072,1 55758U 23028T   23268.64226892  .00000337  00000-0  36004-4 0  9995,2 55758  70.0015 343.6035 0002839 261.4665  98.6172 14.98336119 31823,6950.174,96.107,574.012,570.066,0.0
55758.0,STARLINK-5072,PAYLOAD,2023-09-26 10:38:29,14.98325835,0.000271,70.0016,341.5839,262.0767,98.0085,-8.1387e-06,-1.9e-06,0.0,0 STARLINK-5072,1 55758U 23028T   23269.44339628 -.00000190  00000-0 -81387-5 0  9990,2 55758  70.0016 341.5839 0002710 262.0767  98.0085 14.98325835 31944,6950.206,96.107,573.954,570.187,0.0
55758.0,STARLINK-5072,PAYLOAD,2023-09-26 13:50:45,14.98326945,0.0002697,70.0015,341.247,259.4794,100.6061,6.0546e-06,-2.1e-07,0.0,0 STARLINK-5072,1 55758U 23028T   23269.57691524 -.00000021  00000-0  60546-5 0  9996,2 55758  70.0015 341.2470 0002697 259.4794 100.6061 14.98326945 31964,6950.202,96.107,573.942,570.193,0.0
55758.0,STARLINK-5072,PAYLOAD,2023-09-26 15:26:53,14.98327244,0.0002761,70.0013,341.0781,263.0176,97.0669,2.6373e-05,2.22e-06,0.0,0 STARLINK-5072,1 55758U 23028T   23269.64367477  .00000222  00000-0  26373-4 0  9992,2 55758  70.0013 341.0781 0002761 263.0176  97.0669 14.98327244 31979,6950.201,96.107,573.985,570.147,0.0
55758.0,STARLINK-5072,PAYLOAD,2023-09-27 12:16:38,14.9832821,0.0002798,70.0005,338.8892,264.7676,95.3163,-1.4366e-05,-2.64e-06,0.0,0 STARLINK-5072,1 55758U 23028T   23270.51155538 -.00000264  00000-0 -14366-4 0  9990,2 55758  70.0005 338.8892 0002798 264.7676  95.3163 14.98328210 32100,6950.198,96.107,574.008,570.119,0.0
55758.0,STARLINK-5072,PAYLOAD,2023-09-27 13:52:46,14.98328574,0.0002793,70.0006,338.7211,265.9171,94.1669,-5.6565e-06,-1.6e-06,0.0,0 STARLINK-5072,1 55758U 23028T   23270.57831508 -.00000160  00000-0 -56565-5 0  9997,2 55758  70.0006 338.7211 0002793 265.9171  94.1669 14.98328574 32115,6950.197,96.107,574.003,570.121,0.0
